0 DELFI C3
1 32789U 08021G   13282.21219733  .00006812  00000-0  72172-3 0  7665
2 32789 097.7563 342.9786 0012046 279.4952 115.1278 14.89389106295097
0 DELFI C3
1 32789U 08021G   13283.49104351  .00006134  00000-0  65028-3 0  7675
2 32789 097.7563 344.2320 0012066 274.5825 132.7611 14.89400575295284
0 DELFI C3
1 32789U 08021G   13285.79191164  .00005122  00000-0  54376-3 0  7690
2 32789 097.7567 346.4872 0012050 265.7673 230.9424 14.89419119295625
0 DELFI C3
1 32789U 08021G   13286.79977402  .00005802  00000-0  61503-3 0  7705
2 32789 097.7570 347.4753 0012020 262.1181 235.3472 14.89427402295772
0 DELFI C3
1 32789U 08021G   13288.13333076  .00010135  00000-0  10689-2 0  7712
2 32789 097.7572 348.7828 0011978 257.4171 186.1330 14.89447632295973
0 DELFI C3
1 32789U 08021G   13289.68464457  .00007624  00000-0  80525-3 0  7728
2 32789 097.7569 350.3039 0012151 252.1152 224.5360 14.89469555296202
0 DELFI C3
1 32789U 08021G   13290.75915858  .00007138  00000-0  75415-3 0  7737
2 32789 097.7561 351.3574 0012215 248.2384 226.5309 14.89482689296368
0 DELFI C3
1 32789U 08021G   13291.77156519  .00006241  00000-0  66002-3 0  7748
2 32789 097.7555 352.3500 0012316 244.6378 255.4746 14.89492798296511
0 DELFI C3
1 32789U 08021G   13293.16062727  .00006540  00000-0  69105-3 0  7750
2 32789 097.7547 353.7118 0012439 239.5263 144.4324 14.89506020296720
0 DELFI C3
1 32789U 08021G   13294.23874623  .00007655  00000-0  80757-3 0  7760
2 32789 097.7543 354.7686 0012444 235.4239 166.1148 14.89515945296889
0 DELFI C3
1 32789U 08021G   13295.24636993  .00008484  00000-0  89405-3 0  7779
2 32789 097.7544 355.7563 0012450 231.7892 169.5883 14.89527131297037
